X,Y,OBJECTID,Objecttype,Type_velo,Ligging,Straatnaam,Huisnummer,Aanvulling,District,Postcode,Objectcode,Gebruik,Aantal_plaatsen,Naam
490805.434734077,6661741.33035382,85160,VELOSTATION,ENKELZIJDIG,VOETPAD,Godefriduskaai,,thv Q-park,Antwerpen,2000,VE_0000129,IN_GEBRUIK,36,129 Godefriduskaai
492111.727146252,6659889.10721691,85161,VELOSTATION,ENKELZIJDIG,PLEIN,Koningin Astridplein,,to station 1,Antwerpen,2018,VE_0000002,IN_GEBRUIK,36,002 Centraal station Astrid 2
491186.934469418,6659990.42682704,85162,VELOSTATION,ENKEL-DUBBELZIJDIG,VOETPAD,Meir,84,,Antwerpen,2000,VE_0000026,IN_GEBRUIK,33,026 Meir-Antoon Van Dijck
490256.23271047,6660129.95465012,85163,VELOSTATION,ENKELZIJDIG,VOETPAD,Eiermarkt,12,,Antwerpen,2000,VE_0000019,BUITEN_GEBRUIK,24,019 Eiermarkt
489878.999118811,6660068.07404236,85164,VELOSTATION,ENKELZIJDIG,PARKEERZONE,Groenkerkhofstraat,2,thv Nationalestraat,Antwerpen,2000,VE_0000020,IN_GEBRUIK,27,020 Groenplaats 2
488424.477912633,6658573.20132932,85165,VELOSTATION,ENKELZIJDIG,VOETGANGERSZONE,Cockerillkaai,,,Antwerpen,2000,VE_0000035,IN_GEBRUIK,36,035 Cockerillkaai
489387.628905156,6657587.47548489,85166,VELOSTATION,ENKEL-DUBBELZIJDIG,VOETPAD,Paleisstraat,147,,Antwerpen,2018,VE_0000094,IN_GEBRUIK,33,094 Paleisstraat
488707.472812587,6656639.99841919,85167,VELOSTATION,DUBBELZIJDIG,GROENZONE,Singel,,tssn Singel/Brederodestraat,Antwerpen,2018,VE_0000012,IN_GEBRUIK,36,012 Brussel
491101.593410848,6660217.92747582,85168,VELOSTATION,ENKELZIJDIG,VOETPAD,Lange Nieuwstraat,105,,Antwerpen,2000,VE_0000027,IN_GEBRUIK,36,027 Lange Nieuwstraat
491849.271857856,6657783.70546976,85169,VELOSTATION,ENKELZIJDIG,VOETPAD,Belgiëlei,99,,Antwerpen,2018,VE_0000044,IN_GEBRUIK,36,044 Belgiëlei
492308.146220241,6658513.04659803,85170,VELOSTATION,ENKELZIJDIG,VOETPAD,Mercatorstraat,18,to 18,Antwerpen,2018,VE_0000006,IN_GEBRUIK,24,006 Premetro Plantin
492896.52179314,6658558.20563477,85171,VELOSTATION,DUBBELZIJDIG,VOETGANGERSZONE,Van Der Meydenstraat,123,,Borgerhout,2140,VE_0000111,IN_GEBRUIK,30,111 Van Der Meyden
493385.519365404,6661025.77808601,85172,VELOSTATION,ENKELZIJDIG,VOETPAD,Lange Stuivenbergstraat,86-88,to 86-88,Antwerpen,2060,VE_0000101,IN_GEBRUIK,36,101 Premetro Handel
494172.324085209,6661653.47340548,85173,VELOSTATION,ENKELZIJDIG,PARKEERZONE,Schijnpoortweg,27-29,,Antwerpen,2060,VE_0000120,IN_GEBRUIK,24,120 Eendracht
487434.509500665,6662329.69680895,85174,VELOSTATION,ENKELZIJDIG,VOETPAD,August Vermeylenlaan,7,to 7,Antwerpen,2050,VE_0000144,IN_GEBRUIK,36,144 August Vermeylenlaan
487419.284471926,6661717.23632464,85175,VELOSTATION,ENKELZIJDIG,VOETPAD,August Vermeylenlaan,,charles de costerlaan,Antwerpen,2050,VE_0000145,IN_GEBRUIK,24,145 De Coster
488200.917307756,6660015.59957358,85176,VELOSTATION,ENKELZIJDIG,GROENZONE,Beatrijslaan,42,,Antwerpen,2050,VE_0000153,IN_GEBRUIK,36,153 Beatrijslaan
487089.781480447,6660309.17111845,85177,VELOSTATION,DUBBELZIJDIG,VOETPAD,Blancefloerlaan,163-165,,Antwerpen,2050,VE_0000152,IN_GEBRUIK,36,152 Blancefloerlaan
488295.905193026,6660407.52358694,85178,VELOSTATION,ENKELZIJDIG,VOETPAD,Blancefloerlaan,,to frederick van eedenplein,Antwerpen,2050,VE_0000149,IN_GEBRUIK,36,149 Van Eedenplein
487861.749493456,6662680.60539473,85179,VELOSTATION,ENKELZIJDIG,VOETPAD,Esmoreitlaan,13,thv lodewijk van veltheimlaan,Antwerpen,2050,VE_0000142,IN_GEBRUIK,36,142 Esmoreitlaan
488272.6314739,6660848.82815057,85180,VELOSTATION,ENKELZIJDIG,VOETPAD,Frederik Van Eedenplein,4,to 4,Antwerpen,2050,VE_0000148,IN_GEBRUIK,36,148 Verhaerenlaan
488166.12097089,6662302.46242313,85181,VELOSTATION,ENKELZIJDIG,VOETPAD,Bouvaertlaan,,hoek M. Stokelaan en Bouvaertlaan,Antwerpen,2050,VE_0000143,IN_GEBRUIK,36,143 Melis Stokelaan
488346.301002865,6663000.68825213,85182,VELOSTATION,ENKELZIJDIG,VOETPAD,Gloriantlaan,,thv kastanjedreef,Antwerpen,2050,VE_0000141,IN_GEBRUIK,36,141 Sint-Anna
488873.15401519,6662312.1150709,85183,VELOSTATION,ENKELZIJDIG,VOETPAD,Thonetlaan,,to jachthaven,Antwerpen,2050,VE_0000140,IN_GEBRUIK,36,140 Jachthaven LO
487343.508616647,6661014.87300308,85184,VELOSTATION,ENKELZIJDIG,VOETPAD,Halewijnlaan,88,,Antwerpen,2050,VE_0000147,IN_GEBRUIK,24,147 Halewijnlaan
488233.350152898,6661666.60327977,85185,VELOSTATION,ENKELZIJDIG,VOETPAD,Reinaartlaan,,thv gloriantlaan,Antwerpen,2050,VE_0000146,IN_GEBRUIK,33,146 Reinaartlaan
487770.418706866,6660303.69959939,85186,VELOSTATION,ENKELZIJDIG,VOETPAD,Waterhoenlaan,12,,Antwerpen,2050,VE_0000150,IN_GEBRUIK,24,150 Waterhoenlaan
490203.957902571,6662318.3649562,85187,VELOSTATION,DUBBELZIJDIG,VOETPAD,Amsterdamstraat,,thv rijnkaai,Antwerpen,2000,VE_0000138,IN_GEBRUIK,24,138 Amsterdamstraat
491181.227121347,6662269.9986141,85188,VELOSTATION,ENKELZIJDIG,VOETPAD,Londenstraat,53,,Antwerpen,2000,VE_0000139,IN_GEBRUIK,21,139 Londenstraat
490438.007637572,6662032.19096765,85189,VELOSTATION,DUBBELZIJDIG,VOETPAD,Sint-Laureiskaai,,,Antwerpen,2000,VE_0000137,IN_GEBRUIK,36,137 Sint-Laureiskaai
489858.376366326,6660581.67247273,85190,VELOSTATION,ENKELZIJDIG,VOETPAD,Wisselstraat,12,to 12,Antwerpen,2000,VE_0000060,IN_GEBRUIK,36,060 Grote Markt
491293.441035344,6661769.19594262,85191,VELOSTATION,DUBBELZIJDIG,VOETPAD,Italiëlei,4,thv FOD financien,Antwerpen,2000,VE_0000127,IN_GEBRUIK,30,127 FOD Financiën
490438.074490689,6656163.67755806,85192,VELOSTATION,ENKELZIJDIG,VOETPAD,Jan Van Rijswijcklaan,86,,Antwerpen,2018,VE_0000014,IN_GEBRUIK,36,014 Markgrave
490134.318527475,6660969.73767682,85193,VELOSTATION,ENKELZIJDIG,VOETPAD,Sint-Paulusstraat,42,thv lange koepoortstraat,Antwerpen,2000,VE_0000050,IN_GEBRUIK,21,050 Klapdorp
490834.887894497,6658963.88247386,85194,VELOSTATION,ENKELZIJDIG,VOETPAD,Oudevaartplaats,,thv frankrijklei,Antwerpen,2000,VE_0000077,IN_GEBRUIK,36,077 Blauwtorenplein
489022.846041466,6657806.20140906,85195,VELOSTATION,ENKELZIJDIG,VOETPAD,Amerikalei,162,graaf van hoorplein thv graaf van hoornstraat,Antwerpen,2000,VE_0000080,IN_GEBRUIK,36,080 Montigny
489396.228818048,6656188.16663708,85196,VELOSTATION,ENKELZIJDIG,VOETPAD,Desguinlei,246,to 246 oh plein,Antwerpen,2018,VE_0000040,IN_GEBRUIK,36,040 Desguinlei 
493150.203453236,6660729.25374319,85197,VELOSTATION,ENKELZIJDIG,PARKEERZONE,Duinstraat,83-87,,Antwerpen,2060,VE_0000102,IN_GEBRUIK,36,102 Duinstraat
491919.382542175,6661729.81474346,85198,VELOSTATION,DUBBELZIJDIG,VOETPAD,Lange Dijkstraat,46,thv van aerdtstraat,Antwerpen,2060,VE_0000126,IN_GEBRUIK,36,126 Lange Dijk
489577.270452332,6659256.10974194,85199,VELOSTATION,ENKELZIJDIG,PLEIN,Nationalestraat,111-113,to 111-113 thv lange vlierstraat,Antwerpen,2000,VE_0000076,IN_GEBRUIK,24,076 Prekersplein
491494.733825292,6657385.61398919,85200,VELOSTATION,ENKELZIJDIG,VOETPAD,Belgiëlei,157,thv Greterystraat,Antwerpen,2018,VE_0000043,IN_GEBRUIK,30,043 Grétrystraat
493586.983956208,6656924.58612362,85201,VELOSTATION,ENKELZIJDIG,PLEIN,Burgemeester E. Ryckaertsplein,,NMBS station Berchem,Berchem,2600,VE_0000008,IN_GEBRUIK,30,008 NMBS Berchem 2
493897.410031705,6657360.41221604,85202,VELOSTATION,DUBBELZIJDIG,VOETPAD,Uitbreidingstraat,578,,Berchem,2600,VE_0000112,IN_GEBRUIK,36,112 Pretoriastraat
489417.082926185,6658555.09961678,85203,VELOSTATION,ENKELZIJDIG,PARKEERZONE,Karel Rogierstraat,2-4,,Antwerpen,2000,VE_0000016,IN_GEBRUIK,27,016 Marnixplaats
494479.843603743,6658750.96532501,85204,VELOSTATION,ENKELZIJDIG,PARKEERZONE,Fonteinstraat,70,to 70,Borgerhout,2140,VE_0000069,IN_GEBRUIK,36,069 Fonteinstraat
487421.834851221,6660367.13760744,85205,VELOSTATION,DUBBELZIJDIG,GROENZONE,Blancefloerlaan,48a,to 48a middenberm thv halewijnlaan,Antwerpen,2050,VE_0000151,IN_GEBRUIK,36,151 Van Cauwelaert
491780.051261861,6659935.11798321,85206,VELOSTATION,ENKELZIJDIG,VOETPAD,De Keyserlei,,verplaatst nr Anneessenstraat,Antwerpen,2018,VE_0000024,IN_GEBRUIK,30,024 Opera
491481.723704003,6656631.47469085,85207,VELOSTATION,ENKELZIJDIG,VOETPAD,Grotesteenweg,,thv Boomgaardstraat,Berchem,2600,VE_0000046,BUITEN_GEBRUIK,36,046 De Merode
492434.564366156,6657029.14362731,85208,VELOSTATION,DUBBELZIJDIG,VOETPAD,Boomgaardstraat,,thv militair hospitaal,Antwerpen,2018,VE_0000047,IN_GEBRUIK,36,047 Militair Hospitaal
492644.253663323,6659492.63801449,85209,VELOSTATION,DUBBELZIJDIG,PLEIN,Provinciestraat,81,to 81,Antwerpen,2018,VE_0000119,IN_GEBRUIK,24,119 Ploeg
492411.126714094,6661379.56910708,85210,VELOSTATION,ENKELZIJDIG,VOETPAD,Van Kerckhovenstraat,16,to 16 thv st-norbertusstraat,Antwerpen,2060,VE_0000125,IN_GEBRUIK,36,125 Sint-Norbertus
490497.178571799,6660813.93049338,85211,VELOSTATION,DUBBELZIJDIG,PLEIN,Mutsaardstraat,,mutsaardplein thv blindestraat,Antwerpen,2000,VE_0000051,IN_GEBRUIK,36,051 Mutsaardplein
491118.667643677,6658661.74730363,85212,VELOSTATION,ENKELZIJDIG,PLEIN,Fransenplaats,,thv Moonstraat,Antwerpen,2018,VE_0000041,IN_GEBRUIK,27,041 Van Eyck
492930.168827446,6656199.53491537,85213,VELOSTATION,ENKELZIJDIG,VOETPAD,Vredestraat,99,thv zonnebloemstraat,Berchem,2600,VE_0000055,IN_GEBRUIK,33,055 Zonnebloemstraat
492229.839910989,6659062.255727,85214,VELOSTATION,DUBBELZIJDIG,PLEIN,Kievitplein,,,Antwerpen,2018,VE_0000003,IN_GEBRUIK,30,003 Centraal station Kievit 2
493158.67027991,6657969.78937202,85215,VELOSTATION,ENKELZIJDIG,VOETPAD,Dageraadplaats,,,Antwerpen,2018,VE_0000110,IN_GEBRUIK,36,110 Dageraadplaats
492640.914390271,6656336.62889039,85216,VELOSTATION,ENKELZIJDIG,PARKEERZONE,Statiestraat,53,thv victor jacobslei,Berchem,2600,VE_0000061,IN_GEBRUIK,30,061 Victor Jacobslei
491950.15023234,6655929.34896183,85217,VELOSTATION,ENKELZIJDIG,VOETPAD,Grotesteenweg,,thv Driekoningenstraat,Berchem,2600,VE_0000021,IN_GEBRUIK,30,021 Driekoningen
493214.4951333,6656711.93787303,85218,VELOSTATION,ENKELZIJDIG,VOETPAD,Statiestraat,,thv Posthoflei,Berchem,2600,VE_0000022,IN_GEBRUIK,33,022 Statie
493517.912738625,6659637.29619459,85219,VELOSTATION,ENKELZIJDIG,PLEIN,Laar,,thv Kerkplein,Borgerhout,2140,VE_0000030,IN_GEBRUIK,24,030 Het Laar
493599.265518246,6658696.56606541,85220,VELOSTATION,ENKELZIJDIG,PARKEERZONE,Betogingstraat,1,to 1,Borgerhout,2140,VE_0000039,IN_GEBRUIK,36,039 Koxplein
494270.6914009,6659592.64528977,85221,VELOSTATION,DUBBELZIJDIG,PLEIN,Krugerplein,,thv delarayestraat                 ,Borgerhout,2140,VE_0000108,IN_GEBRUIK,36,108 Krugerpark
492033.938849818,6659836.48880985,85222,VELOSTATION,ENKELZIJDIG,VOETPAD,De Keyserlei,57,,Antwerpen,2018,VE_0000004,IN_GEBRUIK,21,004 Keyserlei
490776.34114962,6660568.18250867,85223,VELOSTATION,ENKELZIJDIG,PARKEERZONE,Keizerstraat,56-58,to 56-58,Antwerpen,2000,VE_0000028,IN_GEBRUIK,24,028 Keizerstraat
492119.045093248,6657428.72796018,85224,VELOSTATION,ENKELZIJDIG,VOETPAD,Lamorinièrestraat,148,,Antwerpen,2018,VE_0000130,IN_GEBRUIK,18,130 Larmoriniere
491305.146798745,6657683.55220837,85225,VELOSTATION,ENKELZIJDIG,VOETPAD,Sint-Vincentiusstraat,61,to 61,Antwerpen,2018,VE_0000093,IN_GEBRUIK,30,093 Sint Vincentius
490041.434005854,6656464.39751877,85226,VELOSTATION,ENKELZIJDIG,PARKEERZONE,Van Schoonbekestraat,,thv markgravelei,Antwerpen,2018,VE_0000089,IN_GEBRUIK,36,089 Hof van Leysen
489671.491508718,6657773.44551172,85227,VELOSTATION,ENKELZIJDIG,VOETPAD,Boudewijnsstraat,19-21,to 19-21,Antwerpen,2018,VE_0000085,IN_GEBRUIK,36,085 Den Bell
491283.751434741,6659123.02418205,85228,VELOSTATION,ENKELZIJDIG,PARKEERZONE,Rubenslei,,thv ingang park,Antwerpen,2018,VE_0000096,IN_GEBRUIK,24,096 Stadspark
489092.745054427,6659705.94505346,85229,VELOSTATION,ENKELZIJDIG,PARKEERZONE,Plantinkaai,27,to 27,Antwerpen,2000,VE_0000065,IN_GEBRUIK,33,065 Plantinkaai
489938.999345221,6660099.95913377,85230,VELOSTATION,ENKELZIJDIG,PLEIN,Groenplaats,7,,Antwerpen,2000,VE_0000017,IN_GEBRUIK,18,017 Groenplaats
491238.3518744,6660634.708906,85231,VELOSTATION,ENKELZIJDIG,PARKEERZONE,Pieter Van Hobokenstraat,19-21,,Antwerpen,2000,VE_0000054,IN_GEBRUIK,21,054 Ossenmarkt
492293.152003015,6661590.78343701,85232,VELOSTATION,ENKELZIJDIG,VOETPAD,Trapstraat,10,,Antwerpen,2060,VE_0000118,IN_GEBRUIK,21,118 Dambrugge
493222.888219715,6661607.22366603,85233,VELOSTATION,ENKELZIJDIG,PARKEERZONE,Stuivenbergplein,36-1,to 36-1,Antwerpen,2060,VE_0000121,IN_GEBRUIK,30,121 Stuivenbergplein
492196.881190618,6655434.48340337,85234,VELOSTATION,DUBBELZIJDIG,GROENZONE,Binnensingel,,kp Grote Stwg,Berchem,2600,VE_0000103,IN_GEBRUIK,36,103 Oude Kerk Berchem
490694.019733965,6655530.87511403,85235,VELOSTATION,ENKEL-DUBBELZIJDIG,MIDDENBERM,Karel Oomsstraat,69,to 69 od middenberm thv binnensingel,Antwerpen,2018,VE_0000031,IN_GEBRUIK,36,031 Wezenberg
491168.216309055,6655638.84360527,85236,VELOSTATION,ENKELZIJDIG,PARKEERZONE,De Wittestraat,101,"to 101, thv generaal lemanstraat",Berchem,2600,VE_0000131,IN_GEBRUIK,21,131 De Wittestraat
491760.399769981,6655882.05431608,85237,VELOSTATION,ENKELZIJDIG,PLEIN,Frans Van Hombeeckplein,10,to 10,Berchem,2600,VE_0000100,IN_GEBRUIK,33,100 Van Hombeeckplein
490952.098408573,6656232.42677147,85238,VELOSTATION,ENKELZIJDIG,GROENZONE,Generaal Lemanstraat,6,to 6 thv karel oomsstraat,Antwerpen,2018,VE_0000099,IN_GEBRUIK,24,099 Generaal Leman
488772.06525163,6656477.95413994,85239,VELOSTATION,DUBBELZIJDIG,GROENZONE,Desguinlei,,Kielsbroek thv Montignystraat,Antwerpen,2018,VE_0000010,IN_GEBRUIK,36,010 NMBS Zuid
491897.447702452,6656725.81155209,85240,VELOSTATION,ENKELZIJDIG,PARKEERZONE,Boomgaardstraat,31,,Antwerpen,2018,VE_0000098,BUITEN_GEBRUIK,21,098 Haringrode
489161.28678022,6656888.88766253,85241,VELOSTATION,ENKELZIJDIG,VOETPAD,Lange Elzenstraat,56,,Antwerpen,2018,VE_0000087,IN_GEBRUIK,21,087 Lange Elzen
493591.702317067,6656921.08379414,85242,VELOSTATION,ENKELZIJDIG,PLEIN,Burgemeester E. Ryckaertsplein,,NMBS station Berchem,Berchem,2600,VE_0000007,IN_GEBRUIK,36,007 NMBS Berchem 
493819.4666836,6658363.03462043,85243,VELOSTATION,DUBBELZIJDIG,RIJWEG,Vandenpeereboomstraat,106,,Borgerhout,2140,VE_0000009,IN_GEBRUIK,30,009 NMBS Oost
490049.732302722,6656955.24420899,85244,VELOSTATION,ENKELZIJDIG,PARKEERZONE,Van Trierstraat,2,to 2 thv haantjeslei,Antwerpen,2018,VE_0000088,IN_GEBRUIK,21,088 Haantjeslei
490479.254071914,6657069.69123184,85245,VELOSTATION,DUBBELZIJDIG,VOETPAD,Lange Lozanastraat,,,Antwerpen,2018,VE_0000029,IN_GEBRUIK,18,029 Lozana
491150.015982026,6657151.96780753,85246,VELOSTATION,ENKELZIJDIG,PARKEERZONE,Mechelsesteenweg,,thv ingang harmoniepark,Antwerpen,2018,VE_0000042,IN_GEBRUIK,21,042 Harmonie
492979.061882548,6657312.35857978,85247,VELOSTATION,ENKELZIJDIG,GROENZONE,Stanleystraat,1,to 1 thv lange leemstraat,Antwerpen,2018,VE_0000097,IN_GEBRUIK,21,097 Cuperus
488939.474910735,6657354.67000024,85248,VELOSTATION,ENKELZIJDIG,VOETPAD,Troonplaats,,thv montignystraat,Antwerpen,2018,VE_0000086,IN_GEBRUIK,27,086 Troonplaats
490985.755512516,6657557.73914381,85249,VELOSTATION,ENKELZIJDIG,VOETPAD,Mechelsesteenweg,180,,Antwerpen,2018,VE_0000092,IN_GEBRUIK,21,092 Sint-Thomas
490337.02850825,6657561.02876034,85250,VELOSTATION,ENKELZIJDIG,VOETPAD,Vinkenstraat,7,to 7,Antwerpen,2018,VE_0000090,IN_GEBRUIK,18,090 Ballaarstraat
488431.046374402,6657578.54361139,85251,VELOSTATION,ENKELZIJDIG,PLEIN,Bolivarplaats,,thv gerechtsgebouw,Antwerpen,2000,VE_0000081,IN_GEBRUIK,27,081 Justitiepaleis
493387.725094894,6657752.84904292,85252,VELOSTATION,ENKELZIJDIG,VOETPAD,Draakplaats,,,Berchem,2600,VE_0000106,IN_GEBRUIK,33,106 Draakplaats
489634.339460683,6658122.75689571,85253,VELOSTATION,ENKELZIJDIG,VOETPAD,Amerikalei,82,,Antwerpen,2000,VE_0000083,IN_GEBRUIK,27,083 Brederode
489188.259236342,6658143.10396246,85254,VELOSTATION,ENKELZIJDIG,VOETPAD,Beeldhouwersstraat,,thv Admiraal De Boisotstraat,Antwerpen,2000,VE_0000015,IN_GEBRUIK,36,015 Schone Kunsten
492502.963660323,6658188.61092253,85255,VELOSTATION,ENKELZIJDIG,PARKEERZONE,Provinciestraat,,thv mercatorstraat,Antwerpen,2018,VE_0000104,IN_GEBRUIK,18,104 Mercator
488390.987694773,6658262.57824682,85256,VELOSTATION,DUBBELZIJDIG,VOETPAD,Waalsekaai,46,thv Fotografie museum,Antwerpen,2000,VE_0000082,IN_GEBRUIK,36,082 Fotografiemuseum
490731.632757885,6658309.53447791,85257,VELOSTATION,DUBBELZIJDIG,VOETPAD,Mechelsesteenweg,66,,Antwerpen,2018,VE_0000091,IN_GEBRUIK,18,091 Hemelstraat
493307.374150698,6658342.07472999,85258,VELOSTATION,ENKELZIJDIG,VOETPAD,Lange Van Ruusbroecstraat,114,,Antwerpen,2018,VE_0000105,IN_GEBRUIK,33,105 Plantin en Moretus
490132.241887581,6658380.71239247,85259,VELOSTATION,ENKELZIJDIG,VOETPAD,Britselei,86-94,,Antwerpen,2000,VE_0000078,IN_GEBRUIK,27,078 Oud Gerechtshof
488887.908703485,6658510.26114924,85260,VELOSTATION,ENKELZIJDIG,PARKEERZONE,Vlaamsekaai,35,,Antwerpen,2000,VE_0000075,IN_GEBRUIK,21,075 Vlaamsekaai
491739.413626303,6658533.64695464,85261,VELOSTATION,ENKELZIJDIG,MIDDENBERM,Van Eycklei,48,to 48,Antwerpen,2018,VE_0000116,IN_GEBRUIK,18,116 Loosplaats
488552.011056477,6658649.32940885,85262,VELOSTATION,ENKELZIJDIG,VOETGANGERSZONE,Waalsekaai,53,,Antwerpen,2000,VE_0000034,IN_GEBRUIK,24,034 MUKHA
490615.79557399,6658712.59707647,85263,VELOSTATION,ENKEL-DUBBELZIJDIG,VOETPAD,Britselei,4,thv mechelsesteenweg,Antwerpen,2000,VE_0000079,IN_GEBRUIK,36,079 Nationale Bank
494011.99515555,6658831.76234271,85264,VELOSTATION,ENKELZIJDIG,PLEIN,Maarschalk Montgomeryplein,4,to 4 oh plein,Borgerhout,2140,VE_0000132,IN_GEBRUIK,18,132 Montgomery
489683.502608331,6658860.13558697,85265,VELOSTATION,ENKELZIJDIG,PARKEERZONE,Kronenburgstraat,82,to 82,Antwerpen,2000,VE_0000072,IN_GEBRUIK,36,072 Tropisch Instituut
489139.650712192,6658931.14378891,85266,VELOSTATION,DUBBELZIJDIG,VOETPAD,Kloosterstraat,164,to 164 thv kronenburgstraat,Antwerpen,2000,VE_0000074,IN_GEBRUIK,30,074 Vismijn
492211.350347798,6659058.0797429,85267,VELOSTATION,DUBBELZIJDIG,PLEIN,Kievitplein,,,Antwerpen,2018,VE_0000005,IN_GEBRUIK,36,005 Centraal Station - Kievit
490358.401885743,6659139.84782393,85268,VELOSTATION,ENKELZIJDIG,MIDDENBERM,Lange Gasthuisstraat,3,to 3,Antwerpen,2000,VE_0000084,IN_GEBRUIK,33,084 Elzenveld
493579.320893629,6659122.39768506,85269,VELOSTATION,DUBBELZIJDIG,PLEIN,Moorkensplein,,,Borgerhout,2140,VE_0000107,IN_GEBRUIK,36,107 Moorkensplein
491149.41547016,6659472.39228686,85270,VELOSTATION,ENKELZIJDIG,PARKEERZONE,Tabakvest,42,,Antwerpen,2000,VE_0000037,IN_GEBRUIK,30,037 Theater
491609.468418179,6659263.23432247,85271,VELOSTATION,ENKELZIJDIG,PARKEERZONE,Quinten Matsijslei,12,,Antwerpen,2018,VE_0000095,IN_GEBRUIK,30,095 Quinten Matsijs 
489397.236072776,6659385.11522489,85272,VELOSTATION,ENKELZIJDIG,PARKEERZONE,Sint-Andriesplaats,23,to 23 oh plein,Antwerpen,2000,VE_0000070,IN_GEBRUIK,30,070 Sint-Andries
488917.723796027,6659335.9903286,85273,VELOSTATION,ENKELZIJDIG,PARKEERZONE,Sint-Michielskaai,21,to 21,Antwerpen,2000,VE_0000071,IN_GEBRUIK,36,071 Sint-Michielskaai
490147.413200947,6659550.27286003,85274,VELOSTATION,ENKEL-DUBBELZIJDIG,PARKEERZONE,Oudaan,14,,Antwerpen,2000,VE_0000067,IN_GEBRUIK,36,067 Oudaan
490783.141414497,6659462.34560201,85275,VELOSTATION,ENKELZIJDIG,VOETPAD,Arenbergstraat,40,,Antwerpen,2000,VE_0000036,IN_GEBRUIK,33,036 Bourla
490956.207573073,6659672.70259574,85276,VELOSTATION,ENKEL-DUBBELZIJDIG,VOETGANGERSZONE,Meistraat,2,,Antwerpen,2000,VE_0000023,IN_GEBRUIK,36,Hopland
489721.320825846,6659791.48306791,85277,VELOSTATION,ENKELZIJDIG,PARKEERZONE,Drukkerijstraat,18,,Antwerpen,2000,VE_0000066,IN_GEBRUIK,24,066 Modemuseum
492102.702350829,6659889.69621897,85278,VELOSTATION,ENKELZIJDIG,PLEIN,Koningin Astridplein,31-32,,Antwerpen,2018,VE_0000001,IN_GEBRUIK,33,001 Centraal Station - Astrid
490492.437086998,6659979.52896301,85279,VELOSTATION,DUBBELZIJDIG,VOETPAD,Meir,18,,Antwerpen,2000,VE_0000018,IN_GEBRUIK,36,018 Meirbrug
491373.782657685,6659991.91938911,85280,VELOSTATION,DUBBELZIJDIG,VOETPAD,Leysstraat, 27,,Antwerpen,2000,VE_0000025,IN_GEBRUIK,36,025 Teniersplaats
493207.234954277,6660053.47929287,85281,VELOSTATION,ENKELZIJDIG,VOETPAD,Kerkstraat,58,,Antwerpen,2060,VE_0000109,IN_GEBRUIK,33,109 Kerkstraat
494106.592959621,6660059.48067237,85282,VELOSTATION,ENKELZIJDIG,VOETPAD,Vercammenstraat,3,thv helmstraat,Borgerhout,2140,VE_0000113,IN_GEBRUIK,36,113 Helmstraat
489255.525641116,6660096.4326995,85283,VELOSTATION,DUBBELZIJDIG,PLEIN,Plantinkaai,,to st-jansvliet zuiderterras,Antwerpen,2000,VE_0000064,IN_GEBRUIK,36,064 Zuiderterras
491847.493192766,6660671.58350609,85284,VELOSTATION,DUBBELZIJDIG,PLEIN,Osystraat,,verplaatst van Italielei naar  Osystraat,Antwerpen,2000,VE_0000011,IN_GEBRUIK,36,011 Roosevelt
489444.439662036,6660492.79368818,85285,VELOSTATION,ENKELZIJDIG,GROENZONE,Ernest Van Dijckkaai,11-12,to 11-12 zuiderterras,Antwerpen,2000,VE_0000059,IN_GEBRUIK,36,059 Het Steen
490103.912205053,6660584.49322897,85286,VELOSTATION,DUBBELZIJDIG,VOETPAD,Wolstraat,2,thv korte koepoortstraat,Antwerpen,2000,VE_0000057,IN_GEBRUIK,21,057 Wolstraat
492117.000771902,6660602.8050341,85287,VELOSTATION,ENKELZIJDIG,PLEIN,De Coninckplein,26,to 26,Antwerpen,2060,VE_0000032,IN_GEBRUIK,27,032 Permeke
493565.129073923,6660668.66116779,85288,VELOSTATION,ENKELZIJDIG,PARKEERZONE,Pesthofstraat,7,to 7,Antwerpen,2060,VE_0000114,IN_GEBRUIK,36,114 ZNA Stuivenberg
490314.880959829,6660692.52997007,85289,VELOSTATION,ENKELZIJDIG,PARKEERZONE,Minderbroedersrui,46,,Antwerpen,2000,VE_0000056,IN_GEBRUIK,30,056 Minderbroedersrui
492511.329077588,6660797.01033375,85290,VELOSTATION,ENKELZIJDIG,VOETPAD,Sint-Elisabethstraat,63,thv greinstraat,Antwerpen,2060,VE_0000115,IN_GEBRUIK,21,115 Metro Elisabeth
489703.016992132,6661074.91119375,85291,VELOSTATION,ENKELZIJDIG,PARKEERZONE,Jordaenskaai,,to saucierstraat,Antwerpen,2000,VE_0000058,IN_GEBRUIK,30,058 Noorderterras
491164.94272123,6661182.4874903,85292,VELOSTATION,ENKELZIJDIG,PARKEERZONE,Paardenmarkt,90,thv kleine kauwenberg,Antwerpen,2000,VE_0000053,IN_GEBRUIK,21,053 Paardenmarkt
493878.769585491,6661137.64267673,85293,VELOSTATION,ENKELZIJDIG,VOETPAD,Pothoekstraat,122,to 122,Antwerpen,2060,VE_0000122,IN_GEBRUIK,21,122 Schijnpoort
491853.238878712,6661277.17922935,85294,VELOSTATION,ENKELZIJDIG,PLEIN,Sint-Jansplein,17,to 17,Antwerpen,2060,VE_0000117,IN_GEBRUIK,30,117 Sint-Jansplein
491096.369833601,6661749.13734552,85295,VELOSTATION,DUBBELZIJDIG,VOETPAD,Entrepotkaai,15,verplaatst van italielei nr Entrepotkaai,Antwerpen,2000,VE_0000052,IN_GEBRUIK,36,052 Waaslandtunnel
489900.538424352,6661341.81579341,85296,VELOSTATION,ENKELZIJDIG,PARKEERZONE,Sint-Pietersvliet,,thv tolhuis,Antwerpen,2000,VE_0000049,IN_GEBRUIK,27,049 Tolhuis
490877.399242373,6661403.81928557,85297,VELOSTATION,ENKELZIJDIG,VOETPAD,Hessenplein,2,,Antwerpen,2000,VE_0000033,IN_GEBRUIK,21,033 Hessenhuis
490051.688313943,6661715.08822057,85298,VELOSTATION,DUBBELZIJDIG,VOETPAD,Sint-Aldegondiskaai,2,thv Bonapartedok,Antwerpen,2000,VE_0000135,IN_GEBRUIK,36,135 Loodswezen
490418.462950264,6661524.59675703,85299,VELOSTATION,DUBBELZIJDIG,VOETPAD,Oudeleeuwenrui,2,,Antwerpen,2000,VE_0000045,IN_GEBRUIK,36,045 Falconplein
490442.465996257,6661746.39799739,85300,VELOSTATION,DUBBELZIJDIG,PLEIN,Godefriduskaai,,thv oostendekaai,Antwerpen,2000,VE_0000134,IN_GEBRUIK,36,134 MAS
492558.691409948,6661919.56754894,85301,VELOSTATION,DUBBELZIJDIG,PARKEERZONE,Viséstraat,14,,Antwerpen,2060,VE_0000123,IN_GEBRUIK,18,123 Park Spoor Noord 2
491072.196075969,6661987.07278102,85302,VELOSTATION,ENKELZIJDIG,VOETPAD,Entrepotplaats,1,,Antwerpen,2000,VE_0000133,IN_GEBRUIK,24,133 Willemdok
491967.428867749,6662065.96048208,85303,VELOSTATION,ENKELZIJDIG,GROENZONE,Ellermanstraat,74,to 74,Antwerpen,2060,VE_0000124,IN_GEBRUIK,30,124 Park Spoor Noord 1
494671.552052775,6659329.70287744,85304,VELOSTATION,DUBBELZIJDIG,VOETPAD,Turnhoutsebaan,366,thv stenenbrug                 ,Borgerhout,2140,VE_0000068,IN_GEBRUIK,30,068 Turnhoutsepoort
492810.751469621,6662395.99419892,85305,VELOSTATION,DUBBELZIJDIG,VOETPAD,Lange Lobroekstraat,220,to,Antwerpen,2060,VE_0000062,IN_GEBRUIK,24,062 Station Dam
493331.565594388,6662067.35746441,85306,VELOSTATION,ENKELZIJDIG,VOETPAD,Lange Lobroekstraat,93,to,Antwerpen,2060,VE_0000063,IN_GEBRUIK,36,063 Slachthuis
493440.928130326,6660320.23707908,85307,VELOSTATION,ENKELZIJDIG,VOETPAD,Pastorijstraat,28,to,Antwerpen,2060,VE_0000038,IN_GEBRUIK,21,038 Pastorijstraat
490210.923902085,6658936.64035725,85308,VELOSTATION,DUBBELZIJDIG,VOETPAD,Maarschalk Gérardstraat,25a,,Antwerpen,2000,VE_0000073,IN_GEBRUIK,36,073 Maarschalk Gerard
490059.567167134,6655644.13909974,85309,VELOSTATION,DUBBELZIJDIG,GROENZONE,Jan Van Rijswijcklaan,,thv de Singel,Antwerpen,2018,VE_0000013,IN_GEBRUIK,36,013 De Singel 1
492028.979582361,6659828.22154691,85310,VELOSTATION,ENKELZIJDIG,VOETPAD,De Keyserlei,61,,Antwerpen,2018,VE_0000048,IN_GEBRUIK,33,048 De Keyserlei 2
492153.707122033,6662389.63387448,85311,VELOSTATION,ENKELZIJDIG,VOETGANGERSZONE,Hardenvoort,,,Antwerpen,2060,VE_0000136,IN_GEBRUIK,33,136 Spoor Noord Skatebowl
494693.541995772,6660129.38324721,85312,VELOSTATION,ENKELZIJDIG,VOETPAD,Terloplein,64,to 64 pleintje,Borgerhout,2140,VE_0000154,IN_GEBRUIK,33,154 Terloplein
494886.99231679,6659625.03906968,85313,VELOSTATION,DUBBELZIJDIG,VOETGANGERSZONE,Statielei,27,to 27 naast spoorwegbrug,Borgerhout,2140,VE_0000155,IN_GEBRUIK,36,155 Statielei
493747.814486195,6657006.53001683,85314,VELOSTATION,ENKELZIJDIG,VOETGANGERSZONE,Borsbeeksebrug,,aan binnensingel,Berchem,2600,VE_0000157,IN_GEBRUIK,36,
489622.590612281,6657092.29173347,85315,VELOSTATION,DUBBELZIJDIG,PLEIN,Zuidervelodroom,55,,Antwerpen,2018,VE_0000158,IN_GEBRUIK,36,158 Zuidervelodroom
489730.20974127,6657732.03954556,85316,VELOSTATION,DUBBELZIJDIG,VOETPAD,Boudewijnssteeg,1, fase 3,Antwerpen,2018,VE_0000159,IN_GEBRUIK,30,159 Den Bell 2
488570.559358879,6657341.69307352,85317,VELOSTATION,DUBBELZIJDIG,GROENZONE,Brusselstraat,5,to 5,Antwerpen,2018,VE_0000160,IN_GEBRUIK,36,160 Vlinderpaleis
491882.012304893,6667915.71990827,85318,VELOSTATION,DUBBELZIJDIG,VOETPAD,Havanastraat,1,,Antwerpen,2030,VE_0000201,IN_GEBRUIK,36,201 Havana
492169.057212234,6666930.97642986,85319,VELOSTATION,ENKELZIJDIG,VOETPAD,Houstonstraat,,to Canadalaan,Antwerpen,2030,VE_0000202,IN_GEBRUIK,24,202 Squarepark
492388.510297801,6666270.46005591,85320,VELOSTATION,DUBBELZIJDIG,GROENZONE,Columbiastraat,,thv Venezuelastraat,Antwerpen,2030,VE_0000203,IN_GEBRUIK,36,203 Venezuelastraat
492130.804524842,6665633.97780151,85321,VELOSTATION,DUBBELZIJDIG,PLEIN,Noorderlaan,104B-104C,,Antwerpen,2030,VE_0000204,IN_GEBRUIK,36,204 Luchtbal winkelcentrum
491414.042641181,6664716.91639866,85322,VELOSTATION,DUBBELZIJDIG,GROENZONE,Groenendaallaan,397A,,Antwerpen,2030,VE_0000205,IN_GEBRUIK,36,205 Kinepolis
492382.089144101,6664637.9487878,85323,VELOSTATION,ENKELZIJDIG,PLEIN,Bermstraat,,hoek Groenendaallaan,Antwerpen,2030,VE_0000206,IN_GEBRUIK,33,206 Station Luchtbal
496730.010649905,6667131.33458655,85324,VELOSTATION,DUBBELZIJDIG,GROENZONE,Van Praetlei,252,to 252,Merksem,2170,VE_0000207,IN_GEBRUIK,36,207 P&R Merksem
495860.490998789,6666443.06437825,85325,VELOSTATION,ENKELZIJDIG,VOETPAD,Ringlaan,74,to 74,Merksem,2170,VE_0000208,IN_GEBRUIK,36,208 Ringlaan Atheneum
495053.931026775,6666788.10787877,85326,VELOSTATION,DUBBELZIJDIG,VOETPAD,Korte Bremstraat,2,to Laaglandlaan,Merksem,2170,VE_0000209,IN_GEBRUIK,36,209 Melgeshof
493787.926715,6666574.45796645,85327,VELOSTATION,DUBBELZIJDIG,GROENZONE,Maantjessteenweg,175,,Merksem,2170,VE_0000210,IN_GEBRUIK,36,210 Maantjessteenweg
493954.709871489,6665856.02518415,85328,VELOSTATION,DUBBELZIJDIG,GROENZONE,Rodeloopstraat,67,to 67,Merksem,2170,VE_0000211,IN_GEBRUIK,36,211 Cultuurcentrum
494507.674028044,6665795.82778191,85329,VELOSTATION,DUBBELZIJDIG,GROENZONE,Rodeloopstraat,1-3,to 1-3,Merksem,2170,VE_0000212,IN_GEBRUIK,36,212 Rode Loop
495156.023281929,6665900.17835504,85330,VELOSTATION,ENKELZIJDIG,PLEIN,Kroonplein,28,to 28,Merksem,2170,VE_0000213,IN_GEBRUIK,30,213 Kroonplein
493485.083149462,6665275.33194011,85331,VELOSTATION,DUBBELZIJDIG,GROENZONE,Lambrechtshoekenlaan,133-135,,Merksem,2170,VE_0000214,IN_GEBRUIK,36,214 Kerkhofblommen
494289.351044612,6665059.39079916,85332,VELOSTATION,ENKELZIJDIG,VOETPAD,Nieuwdreef,107,,Merksem,2170,VE_0000215,IN_GEBRUIK,36,215 Nieuwdreef
495251.984674969,6665147.8779027,85333,VELOSTATION,DUBBELZIJDIG,PLEIN,Van Heybeeckstraat,28,to 28,Merksem,2170,VE_0000216,IN_GEBRUIK,30,216 Zwembad Merksem
495904.465288207,6665473.45814238,85334,VELOSTATION,ENKELZIJDIG,GROENZONE,Bredabaan,768,to 768,Merksem,2170,VE_0000217,IN_GEBRUIK,30,217 Joske Vermeulen
493789.568131944,6664396.16076049,85335,VELOSTATION,DUBBELZIJDIG,PLEIN,Ullenshofstraat,3,to 3,Merksem,2170,VE_0000218,IN_GEBRUIK,36,218 Groenendaalcollege
494536.019474039,6664245.68403606,85336,VELOSTATION,ENKELZIJDIG,VOETPAD,Borrewaterstraat,8,,Merksem,2170,VE_0000219,IN_GEBRUIK,33,219 Districtshuis Merksem
495076.795126813,6664410.20942347,85337,VELOSTATION,DUBBELZIJDIG,PLEIN,Sint-Bartholomeusstraat,122,,Merksem,2170,VE_0000220,IN_GEBRUIK,30,220 't Dokske
491349.040832484,6662673.3423466,85338,VELOSTATION,DUBBELZIJDIG,VOETPAD,Binnenvaartstraat,,to Cadixstraat,Antwerpen,2000,VE_0000222,IN_GEBRUIK,36,222 Cadix Oost
490148.627491348,6662678.09546253,85339,VELOSTATION,DUBBELZIJDIG,VOETPAD,Rijnkaai,15,,Antwerpen,2000,VE_0000223,IN_GEBRUIK,36,223 Red Star Line
490899.20402334,6662887.96540873,85340,VELOSTATION,ENKELZIJDIG,VOETPAD,Indiëstraat,3,,Antwerpen,2030,VE_0000224,IN_GEBRUIK,36,224 Indiëstraat
490659.039955525,6662182.32439503,85341,VELOSTATION,DUBBELZIJDIG,VOETPAD,Verbindingsdok-Oostkaai,9,to 9,Antwerpen,2000,VE_0000225,IN_GEBRUIK,36,225 Verbindingsdok Eilandje
493124.228182911,6662784.77847756,85342,VELOSTATION,DUBBELZIJDIG,GROENZONE,Noordschippersdok,,terug naar Ijzerlaan,Antwerpen,2060,VE_0000226,IN_GEBRUIK,36,226 Noordschippersdok
494758.138625446,6662585.85564127,85343,VELOSTATION,ENKELZIJDIG,PLEIN,Van Cortbeemdelei,113,to 113 oh plein,Deurne,2100,VE_0000227,IN_GEBRUIK,24,227 Amstel
495513.025719343,6662042.25950401,85344,VELOSTATION,ENKELZIJDIG,PLEIN,Van Deynsestraat,120,to 120,Deurne,2100,VE_0000228,IN_GEBRUIK,24,228 Van Heetvelde
495588.879074593,6661419.15750519,85345,VELOSTATION,DUBBELZIJDIG,GROENZONE,Jozef Nellenslei,26,,Deurne,2100,VE_0000229,IN_GEBRUIK,36,229 Jozef Nellens
496705.46565019,6661931.9844662,85346,VELOSTATION,DUBBELZIJDIG,PLEIN,Sint-Fredegandusstraat,80,,Deurne,2100,VE_0000230,IN_GEBRUIK,36,230 Bosuil
497356.3489595,6661954.17004261,85347,VELOSTATION,DUBBELZIJDIG,GROENZONE,Gallifortlei,278,,Deurne,2100,VE_0000231,IN_GEBRUIK,36,231 den Antwerp
498551.553126709,6661810.71964637,85348,VELOSTATION,DUBBELZIJDIG,PLEIN,Wim Saerensplein,25,,Deurne,2100,VE_0000232,IN_GEBRUIK,36,232 Wim Saerens
497160.886727162,6661210.26050581,85349,VELOSTATION,DUBBELZIJDIG,VOETPAD,Gallifortlei,198,,Deurne,2100,VE_0000233,IN_GEBRUIK,36,233 Gallifort
496616.763592419,6660693.17609603,85350,VELOSTATION,ENKELZIJDIG,VOETPAD,Jan Brochovenstraat,28,,Deurne,2100,VE_0000234,IN_GEBRUIK,36,234 Deurne Atheneum
495913.456479229,6660274.89037185,85351,VELOSTATION,DUBBELZIJDIG,PLEIN,Cogelsplein,19-21,,Deurne,2100,VE_0000235,IN_GEBRUIK,36,235 Cogelsplein
496485.594716447,6660154.69980322,85352,VELOSTATION,DUBBELZIJDIG,PLEIN,Maurice Dequeeckerplein,3,to 3,Deurne,2100,VE_0000236,IN_GEBRUIK,36,236 Districthuis Deurne
497508.75695184,6660386.42106931,85353,VELOSTATION,DUBBELZIJDIG,GROENZONE,Ter Rivierenlaan,18,,Deurne,2100,VE_0000237,IN_GEBRUIK,36,237 Ter Rivieren
498227.043678052,6660966.64361696,85354,VELOSTATION,ENKELZIJDIG,VOETPAD,Ertbruggelaan,2,,Deurne,2100,VE_0000238,IN_GEBRUIK,24,238 Ertbrugge
498666.20979552,6660519.75459003,85355,VELOSTATION,ENKELZIJDIG,VOETPAD,Ruggeveldlaan,549,,Deurne,2100,VE_0000239,IN_GEBRUIK,30,239 Zwarte Arend
498952.411965149,6659825.34130097,85356,VELOSTATION,DUBBELZIJDIG,VOETGANGERSZONE,Ruggeveldlaan,,,Deurne,2100,VE_0000240,IN_GEBRUIK,36,240 Park Groot Schijn
495754.784088512,6659146.18210101,85357,VELOSTATION,DUBBELZIJDIG,GROENZONE,Collegelaan,42-44,to 42-44,Borgerhout,2140,VE_0000241,IN_GEBRUIK,36,241 Kerkendijk
495666.400404938,6658576.20744309,85358,VELOSTATION,DUBBELZIJDIG,GROENZONE,Luitenant Lippenslaan,2,to 2,Borgerhout,2140,VE_0000242,IN_GEBRUIK,36,242 Te Boelaerlei
496284.7113536,6658454.73463313,85359,VELOSTATION,DUBBELZIJDIG,GROENZONE,Herentalsebaan,133,,Deurne,2100,VE_0000243,IN_GEBRUIK,36,243 Mestputteke
497076.768923558,6658131.00475551,85360,VELOSTATION,DUBBELZIJDIG,PARKEERZONE,Herentalsebaan,299,,Deurne,2100,VE_0000244,IN_GEBRUIK,36,244 Waterbaan
497744.722675559,6657958.13427721,85361,VELOSTATION,ENKELZIJDIG,GROENZONE,Florent Pauwelslei,1,to 18,Deurne,2100,VE_0000245,IN_GEBRUIK,36,245 AZ Monica
496304.370025129,6658006.15003066,85362,VELOSTATION,DUBBELZIJDIG,GROENZONE,Arenaplein,1,to 1,Deurne,2100,VE_0000246,IN_GEBRUIK,36,246 Arena
494922.791961977,6658222.34054305,85363,VELOSTATION,ENKELZIJDIG,VOETPAD,Luitenant Lippenslaan,55-59,,Borgerhout,2140,VE_0000247,IN_GEBRUIK,36,247 ZNA Erasmus
495281.48563452,6657802.00965369,85364,VELOSTATION,DUBBELZIJDIG,GROENZONE,Berchemlei,67,to 67 thv De Schans,Borgerhout,2140,VE_0000248,IN_GEBRUIK,36,248 De Schans
494728.681971945,6657421.0367464,85365,VELOSTATION,DUBBELZIJDIG,VOETPAD,Frans De Vriendtstraat,61,to 61,Borgerhout,2140,VE_0000249,IN_GEBRUIK,30,249 Frans de Vriendt
494148.861807114,6656929.88323566,85366,VELOSTATION,DUBBELZIJDIG,VOETPAD,Diksmuidelaan,8,hoek Herculusstraat,Berchem,2600,VE_0000250,IN_GEBRUIK,36,250 Borsbeekbrug
495594.208346156,6657449.09079338,85367,VELOSTATION,DUBBELZIJDIG,GROENZONE,Arthur Matthyslaan,76,"to 76, to Thibautstraat",Borgerhout,2140,VE_0000251,IN_GEBRUIK,30,251Te Boelaerpark Noord
495399.867098726,6656771.03948325,85368,VELOSTATION,ENKELZIJDIG,VOETPAD,Karel De Preterlei,222,to 222,Borgerhout,2140,VE_0000252,IN_GEBRUIK,33,252 Te Boelaerpark/Gitschotelei
495743.758675884,6656416.49950359,85369,VELOSTATION,ENKELZIJDIG,PLEIN,Vosstraat,19,,Borgerhout,2140,VE_0000253,IN_GEBRUIK,36,253 Vosplein
496437.25855379,6656316.90952845,85370,VELOSTATION,DUBBELZIJDIG,MIDDENBERM,Boekenberglei,189,,Deurne,2100,VE_0000254,IN_GEBRUIK,30,254 Sint-Jozef
497331.001987407,6657488.03050448,85371,VELOSTATION,ENKELZIJDIG,GROENZONE,Van Den Hautelei,90,to 90,Deurne,2100,VE_0000255,IN_GEBRUIK,36,255 Van den Haute
494506.071359675,6655940.36218936,85372,VELOSTATION,ENKELZIJDIG,VOETPAD,Helderstraat,59,,Berchem,2600,VE_0000256,IN_GEBRUIK,27,256 Zillebeek
495236.093473551,6655386.57550734,85373,VELOSTATION,ENKELZIJDIG,PARKEERZONE,Hofstadestraat,,hoek Klerkenstraat,Berchem,2600,VE_0000257,IN_GEBRUIK,36,257 Hofstade
494694.329540587,6656310.74228371,85374,VELOSTATION,ENKELZIJDIG,GROENZONE,Lodewijk Van Berckenlaan,127,to 127,Berchem,2600,VE_0000258,IN_GEBRUIK,30,258 Hof van Nauwelaerts
493925.453550812,6655568.70763264,85375,VELOSTATION,DUBBELZIJDIG,GROENZONE,Posthofbrug,,thv Arbeidersstraat,Berchem,2600,VE_0000259,IN_GEBRUIK,36,259 Posthofbrug
492218.635427506,6654921.8641605,85376,VELOSTATION,ENKELZIJDIG,GROENZONE,Hof Ter Schriecklaan,1,,Berchem,2600,VE_0000260,IN_GEBRUIK,27,260 Ter Schriek
493095.790186111,6654740.80262813,85377,VELOSTATION,DUBBELZIJDIG,GROENZONE,Henri Prostlaan,5,eind vd keerlus,Berchem,2600,VE_0000261,IN_GEBRUIK,36,261 Brilschans
493758.173366927,6654849.61747735,85378,VELOSTATION,DUBBELZIJDIG,GROENZONE,Rooi,,thv Achtersteveld,Berchem,2600,VE_0000262,IN_GEBRUIK,36,262 Hoogveld
494354.233386333,6653986.47731522,85379,VELOSTATION,ENKELZIJDIG,MIDDENBERM,Fruithoflaan,85,to 85 middenberm,Berchem,2600,VE_0000263,IN_GEBRUIK,36,263 Fruithoflaan 2
493719.867663793,6654547.35083781,85380,VELOSTATION,DUBBELZIJDIG,PLEIN,Filip Williotstraat,11,,Berchem,2600,VE_0000264,IN_GEBRUIK,36,264 Filip Williotstraat
493368.045847062,6654111.66137497,85381,VELOSTATION,DUBBELZIJDIG,VOETPAD,Pulhoflaan,,thv Lappersbrug,Berchem,2600,VE_0000265,IN_GEBRUIK,30,265 Pulhof
493681.633452909,6653340.23571093,85382,VELOSTATION,ENKELZIJDIG,MIDDENBERM,Fruithoflaan,3-5,to 3-5,Berchem,2600,VE_0000266,IN_GEBRUIK,36,266 Fruithoflaan 1
492405.258444015,6654228.77155072,85383,VELOSTATION,DUBBELZIJDIG,GROENZONE,Prins Leopoldlaan,36,to 36 od hoek,Berchem,2600,VE_0000267,IN_GEBRUIK,30,267 Leopold
491863.384344579,6653736.99001464,85384,VELOSTATION,ENKELZIJDIG,VOETPAD,Lindendreef,,,Antwerpen,2020,VE_0000268,IN_GEBRUIK,36,268 ZNA Middelheim
492519.579715117,6653745.55805266,85385,VELOSTATION,DUBBELZIJDIG,GROENZONE,Troyentenhoflaan,120-122,,Berchem,2600,VE_0000269,IN_GEBRUIK,30,269 Middelheim
490262.195304825,6654329.53654196,85386,VELOSTATION,ENKELZIJDIG,GROENZONE,Eglantierlaan,1,,Antwerpen,2020,VE_0000270,IN_GEBRUIK,36,270 Dikke Mee
490812.918859277,6653329.67614924,85387,VELOSTATION,DUBBELZIJDIG,GROENZONE,Beukenlaan,24,to 24 hoek Middelheimlaan,Antwerpen,2020,VE_0000271,IN_GEBRUIK,36,271 Middelheim Museum
492215.515028243,6652808.250874,85388,VELOSTATION,ENKELZIJDIG,MIDDENBERM,Groenenborgerlaan,199,,Antwerpen,2020,VE_0000272,IN_GEBRUIK,30,272 Groenenborger
491251.323812223,6652448.69818494,85389,VELOSTATION,ENKELZIJDIG,GROENZONE,Oosterveldlaan,8,to 8,Wilrijk,2610,VE_0000273,IN_GEBRUIK,36,273 Campus Groenenborger
489216.65852286,6651501.29097959,85390,VELOSTATION,DUBBELZIJDIG,PLEIN,Bist,,,Wilrijk,2610,VE_0000274,IN_GEBRUIK,30,274 De Bist
490172.364826791,6652199.27767013,85391,VELOSTATION,DUBBELZIJDIG,VOETPAD,Groenenborgerlaan,17,,Wilrijk,2610,VE_0000275,IN_GEBRUIK,36,275 Sneeuwbes
489142.590914402,6653828.59540821,85392,VELOSTATION,DUBBELZIJDIG,PLEIN,Kruishofstraat,140,to 140,Wilrijk,2610,VE_0000276,IN_GEBRUIK,36,276 Corbusier
489781.127061854,6652673.35688859,85393,VELOSTATION,ENKELZIJDIG,VOETPAD,Ahornenlaan,1,,Wilrijk,2610,VE_0000277,IN_GEBRUIK,36,277 Ahornen
489127.512127987,6650598.42330734,85394,VELOSTATION,DUBBELZIJDIG,GROENZONE,Oversneslaan,54,,Wilrijk,2610,VE_0000278,IN_GEBRUIK,36,278 Oversnes
489191.554475812,6651094.17893851,85395,VELOSTATION,DUBBELZIJDIG,PLEIN,Doornstraat,2,naast 2,Wilrijk,2610,VE_0000279,IN_GEBRUIK,36,279 Ieperman
487846.074250356,6652612.501008,85396,VELOSTATION,DUBBELZIJDIG,GROENZONE,Bosheidelaan,,hoek Rooiboslaan,Wilrijk,2610,VE_0000280,IN_GEBRUIK,36,280 Marmotteke
488176.545469121,6653632.66081881,85397,VELOSTATION,DUBBELZIJDIG,GROENZONE,Hof Van Tichelen,30,naast 30,Antwerpen,2020,VE_0000281,IN_GEBRUIK,36,281 Hof van Tichelen
487695.059968425,6653244.94166435,85398,VELOSTATION,DUBBELZIJDIG,VOETPAD,Letterkundestraat,59-63,basis school de letter,Wilrijk,2610,VE_0000282,IN_GEBRUIK,36,282 De Letter
486682.977310286,6653493.79295666,85399,VELOSTATION,DUBBELZIJDIG,PLEIN,Hollebeekstraat,25-27,to 25-27,Hoboken,2660,VE_0000283,IN_GEBRUIK,36,283 Hollebeek
485819.485303975,6653778.05651533,85400,VELOSTATION,DUBBELZIJDIG,VOETPAD,Steynstraat,297-299,,Hoboken,2660,VE_0000284,IN_GEBRUIK,36,284 Steynstraat
484046.296372767,6653655.20274285,85401,VELOSTATION,ENKELZIJDIG,PLEIN,Berkenrodelei,150,naast 150,Hoboken,2660,VE_0000286,BUITEN_GEBRUIK,36,286 Station Hoboken/Polderstad
484246.938832715,6652800.89192656,85402,VELOSTATION,DUBBELZIJDIG,VOETPAD,Berkenrodelei,2,,Hoboken,2660,VE_0000287,IN_GEBRUIK,36,287 Kioskplaats/Centrum
485334.035728273,6652716.03025196,85403,VELOSTATION,DUBBELZIJDIG,GROENZONE,Draaiboomstraat,44,to 44,Hoboken,2660,VE_0000288,IN_GEBRUIK,36,288 Draaiboom
484480.723031521,6652045.51009905,85404,VELOSTATION,DUBBELZIJDIG,VOETPAD,Walstraat,5-7,to 5-7,Hoboken,2660,VE_0000289,IN_GEBRUIK,36,289 Broydenborgpark
486220.485111618,6652526.66490496,85405,VELOSTATION,DUBBELZIJDIG,GROENZONE,Sint-Bernardsesteenweg,886,to 886,Hoboken,2660,VE_0000290,IN_GEBRUIK,36,290 Coöperatielaan
486764.015084873,6654715.15672522,85406,VELOSTATION,DUBBELZIJDIG,GROENZONE,Maurits Sabbelaan,16-18,to 16-18,Antwerpen,2020,VE_0000291,IN_GEBRUIK,36,291 Braem blokken
487689.018236432,6655104.11751481,85407,VELOSTATION,DUBBELZIJDIG,GROENZONE,Jacob Le Mairestraat,8,naast 8 aan keerlus,Antwerpen,2020,VE_0000292,IN_GEBRUIK,36,292 Kielpark
488794.788744842,6654695.18461383,85408,VELOSTATION,ENKELZIJDIG,PLEIN,Pol De Montstraat,10,to 10 oh plein,Antwerpen,2020,VE_0000293,IN_GEBRUIK,36,293 Edgard Castelein
487226.56415561,6655171.06970605,85409,VELOSTATION,ENKELZIJDIG,PLEIN,Valerius De Saedeleerstraat,2,to 2,Antwerpen,2020,VE_0000294,IN_GEBRUIK,36,294 Den Tir
487504.921392114,6655735.35870084,85410,VELOSTATION,ENKELZIJDIG,GROENZONE,Emiel Vloorsstraat,,hoek August Leysweg,Antwerpen,2020,VE_0000295,IN_GEBRUIK,36,295 Sporthal Kiel
489034.259004456,6655697.92948288,85411,VELOSTATION,DUBBELZIJDIG,GROENZONE,Eric Sasselaan,69,to 69,Antwerpen,2020,VE_0000296,IN_GEBRUIK,30,296 Mastvest
488570.596800036,6655091.73592432,85412,VELOSTATION,DUBBELZIJDIG,GROENZONE,Jan De Voslei,,thv C Huysmanslaan,Antwerpen,2020,VE_0000297,IN_GEBRUIK,36,297 Tentoonstellingswijk
487855.221667427,6651752.40908648,85413,VELOSTATION,ENKELZIJDIG,VOETPAD,Valkstraat,,thv Gaston Fabrelaan,Wilrijk,2610,VE_0000298,IN_GEBRUIK,27,298 Koornbloem
489589.270430054,6655319.32405486,85414,VELOSTATION,ENKELZIJDIG,GROENZONE,Camille Huysmanslaan,,thv J V Rijswijcklaan,Antwerpen,2020,VE_0000299,IN_GEBRUIK,36,299 Antwerp Expo
489505.764549247,6654856.73892743,85415,VELOSTATION,DUBBELZIJDIG,GROENZONE,Vogelzanglaan,,thv voetbalveld,Antwerpen,2020,VE_0000300,IN_GEBRUIK,36,300 Wilrijksepleinen
495415.963832284,6654735.91288649,85416,VELOSTATION,DUBBELZIJDIG,PLEIN,Luchthavenlei,1,Op de parking van de luchthaven,Deurne,2100,VE_0000301,IN_GEBRUIK,30,301 Luchthaven
488742.933482606,6653035.77225894,85417,VELOSTATION,DUBBELZIJDIG,PLEIN,Rozenkransplein,11,to 11 oh plein,Wilrijk,2610,VE_0000302,IN_GEBRUIK,30,302 Rozenkrans
484558.676441286,6653883.00409323,85418,VELOSTATION,ENKELZIJDIG,VOETPAD,Commandant Weynsstraat,,,Hoboken,2660,VE_0000285,IN_GEBRUIK,27,285 Hoge beuken
490742.043411816,6663891.51087789,85419,VELOSTATION,ENKELZIJDIG,VOETPAD,Mexicostraat,thv 37,nieuw havenhuis,Antwerpen,2030,VE_0000221,IN_GEBRUIK,36,221 Havenhuis
490945.315498293,6663495.72450633,85420,VELOSTATION,ENKELZIJDIG,PARKEERZONE,Kambalastraat,2,,Antwerpen,2030,VE_0000303,IN_GEBRUIK,36,303 Kambala
493600.830671822,6663877.5191061,85421,VELOSTATION,DUBBELZIJDIG,GROENZONE,Campiniastraat,50,,Merksem,2170,VE_0000304,IN_GEBRUIK,36,304 Campinia
492652.905944651,6661373.87124174,85422,VELOSTATION,DUBBELZIJDIG,VOETGANGERSZONE,Van Kerckhovenstraat,74,,Antwerpen,2060,VE_0000156,IN_GEBRUIK,30,156 Gasstraat
492645.375362148,6657399.8219727,85423,VELOSTATION,DUBBELZIJDIG,PLEIN,Lange Leemstraat,,,Antwerpen,2018,VE_0000161,IN_GEBRUIK,36,161 Hospitaalplein
494654.935421316,6655194.78628248,85424,VELOSTATION,DUBBELZIJDIG,GROENZONE,Ter Nieuwerbrugge,3,,Berchem,2600,VE_0000305,IN_GEBRUIK,36,305 Ter Nieuwerbrugge
482919.64329989,6651786.33645776,85425,VELOSTATION,DUBBELZIJDIG,GROENZONE,Baron Sadoinestraat,26,,Hoboken,2660,VE_0000307,IN_GEBRUIK,36,307 Baron Sadoin
486158.651563617,6651619.02563469,85426,VELOSTATION,ENKELZIJDIG,PLEIN,Majoor Maelfaitplein,15,langsheen het plein,Hoboken,2660,VE_0000308,IN_GEBRUIK,36,308 KDG Campus Hoboken
484185.294259694,6651580.67722369,85427,VELOSTATION,DUBBELZIJDIG,GROENZONE,Paul Henri Spaaklaan,2,,Hoboken,2660,VE_0000309,IN_GEBRUIK,36,309 De Torekens
484638.02289339,6650921.90594816,85428,VELOSTATION,DUBBELZIJDIG,PLEIN,Krijgsbaan,20,,Hoboken,2660,VE_0000310,IN_GEBRUIK,36,310 Sporthal Sorghvliedt
483592.454370285,6652264.49576842,85429,VELOSTATION,ENKELZIJDIG,GROENZONE,Cockerillplaats,12-14,to 12-14,Hoboken,2660,VE_0000311,IN_GEBRUIK,36,311 Cockerillhof
483390.77089015,6654046.28000224,85430,VELOSTATION,ENKELZIJDIG,GROENZONE,Graspolderlaan,15-21,,Hoboken,2660,VE_0000312,IN_GEBRUIK,36,312 Graspolder
485726.173771695,6651261.82797408,85431,VELOSTATION,DUBBELZIJDIG,MIDDENBERM,Sint Bernaardsestwg,847,,Hoboken,2660,VE_0000314,IN_GEBRUIK,36,314 Schoonselhof
487079.777541811,6652134.82902872,85432,VELOSTATION,DUBBELZIJDIG,GROENZONE,Den Brem,91,,Wilrijk,2610,VE_0000320,IN_GEBRUIK,36,320 Den Brem
487345.048323257,6659853.22636583,85433,VELOSTATION,DUBBELZIJDIG,GROENZONE,Galgenweellaan,70,,Antwerpen,2050,VE_0000163,IN_GEBRUIK,36,163 Pluvier
493478.187648926,6666006.58662451,85434,VELOSTATION,ENKELZIJDIG,GROENZONE,Ganzemate,,,Merksem,2170,VE_0000317,IN_GEBRUIK,36,317 Distelhoek
485142.516235854,6653512.6849407,85435,VELOSTATION,DUBBELZIJDIG,GROENZONE,Dokter Emiel Van Dammestraat,28,,Hoboken,2660,VE_0000316,IN_GEBRUIK,36,316 D. E. Van Damme
487800.076176577,6650870.47802631,85436,VELOSTATION,ENKELZIJDIG,GROENZONE,Malisgoed,7,,Wilrijk,2610,VE_0000322,IN_GEBRUIK,24,322 Malisgoed
493167.469248511,6652323.27608357,85437,VELOSTATION,DUBBELZIJDIG,PLEIN,Monnikenplein,1,,Wilrijk,2610,VE_0000321,IN_GEBRUIK,36,321 Monnikenplein
486309.851241186,6660292.33402476,85438,VELOSTATION,DUBBELZIJDIG,VOETPAD,Blancefloerlaan,7272,,Antwerpen,2050,VE_0000162,IN_GEBRUIK,36,162 Regatta
485348.633114261,6652297.09330968,85439,VELOSTATION,DUBBELZIJDIG,VOETPAD,Paul Vekemanslaan,18,,Hoboken,2660,VE_0000325,IN_GEBRUIK,30,325 Paul Vekemans
485739.350021915,6654523.53660142,85440,VELOSTATION,DUBBELZIJDIG,GROENZONE,,,,Hoboken,2660,VE_0000326,IN_GEBRUIK,36,326 Krugerbrug
487000.956986623,6652701.06189876,85441,VELOSTATION,DUBBELZIJDIG,PLEIN,Ridderveld,7,,Wilrijk,2610,VE_0000327,IN_GEBRUIK,30,327 Ridderveld
498172.295395938,6660148.77109398,85442,VELOSTATION,DUBBELZIJDIG,VOETPAD,Schotensesteenweg,5,,Deurne,2100,VE_0000328,IN_GEBRUIK,36,328 Oude Terminus
491912.392631992,6652358.8840319,85443,VELOSTATION,ENKELZIJDIG,GROENZONE,Oosterveldlaan,24,,Wilrijk,2610,VE_0000323,IN_GEBRUIK,36,323 Sint-Augustinus
496621.124050583,6657509.4344358,85444,VELOSTATION,DUBBELZIJDIG,VOETPAD,Dordrechtlaan,2,,Deurne,2100,VE_0000324,IN_GEBRUIK,24,324 Dordrechtlaan
497667.565495261,6661364.31726975,85445,VELOSTATION,ENKELZIJDIG,PLEIN,Prosper De Witstraat,5,,Deurne,2100,VE_0000329,IN_GEBRUIK,27,329 Prosper de Wit
484936.787978887,6651819.58782798,85446,VELOSTATION,ENKELZIJDIG,GROENZONE,Meerlenhoflaan,32,ingang park,Hoboken,2660,VE_0000330,IN_GEBRUIK,36,330 Meerlenhof
482978.017259085,6652411.11021819,85447,VELOSTATION,DUBBELZIJDIG,GROENZONE,Zaatlaan,6,,Hoboken,2660,VE_0000331,IN_GEBRUIK,36,331 Zaatlaan
488180.025109176,6650965.16236704,85448,VELOSTATION,DUBBELZIJDIG,GROENZONE,Michel Geysemansstraat,10,,Wilrijk,2610,VE_0000332,IN_GEBRUIK,36,332 Valkstraat
494456.862069341,6666428.84785134,85449,VELOSTATION,ENKELZIJDIG,GROENZONE,Frans Adriaenssensstraat,123,joma basisschool,Merksem,2170,VE_0000333,IN_GEBRUIK,30,333 Frans Adriaenssens/Joma
494752.090885436,6665327.28305666,85450,VELOSTATION,ENKELZIJDIG,PARKEERZONE,Speelpleinstraat,,,Merksem,2170,VE_0000335,IN_GEBRUIK,36,335 Speelplein
490356.497657279,6651107.75737819,85451,VELOSTATION,ENKELZIJDIG,PLEIN,Dokter Donnyplein,1,,Wilrijk,2610,VE_0000340,IN_GEBRUIK,36,340 Dokter Donny
499037.530047681,6660269.11858596,85452,VELOSTATION,DUBBELZIJDIG,GROENZONE,August Van de Wielelei,136,,Deurne,2100,VE_0000334,IN_GEBRUIK,36,334 Den Haas
489371.00653582,6652422.27775742,85453,VELOSTATION,DUBBELZIJDIG,PARKEERZONE,Sneeuwbeslaan,,Hoek met Laarstraat,Wilrijk,2610,VE_0000336,IN_GEBRUIK,36,336 Sneeuwbeslaan
484614.055563542,6650323.35369225,85454,VELOSTATION,ENKELZIJDIG,VOETPAD,Verenigde Natieslaan,168,,Hoboken,2660,VE_0000337,IN_GEBRUIK,24,337 Verenigde Naties
482248.696014479,6652379.41420259,85455,VELOSTATION,DUBBELZIJDIG,VOETPAD,Leo Bosschartlaan,,,Hoboken,2660,VE_0000339,BUITEN_GEBRUIK,36,339 't Veer
497648.922013583,6656839.11085414,85456,VELOSTATION,DUBBELZIJDIG,VOETPAD,Eksterlaar,,,Deurne,2100,VE_0000313,IN_GEBRUIK,36,313 Eksterlaar 1
492430.184422819,6651430.47303538,85457,VELOSTATION,DUBBELZIJDIG,MIDDENBERM,Elsdonklaan,31,,Wilrijk,2610,VE_0000315,IN_GEBRUIK,36,Elsdonk
490388.173069964,6651922.02163825,85458,VELOSTATION,DUBBELZIJDIG,GROENZONE,Schaliemolenstraat,2,to 2 od groenzone,Wilrijk,2610,VE_0000319,IN_GEBRUIK,30,319 Schalienmolen
491732.298060516,6662410.77325943,85459,VELOSTATION,DUBBELZIJDIG,VOETGANGERSZONE,Kempenstraat,nvt,,,2030,VE_0000128,IN_GEBRUIK,36,128 ZNA Cadix
487955.440148777,6657837.65334879,85460,VELOSTATION,DUBBELZIJDIG,VOETPAD,Jos Smolderenstraat,,,Antwerpen,2000,VE_0000342,IN_GEBRUIK,36,342 Nieuw Zuid
491482.759317221,6662076.15879408,85461,VELOSTATION,DUBBELZIJDIG,GROENZONE,Ellermanstraat,,,Antwerpen,2060,VE_0000164,IN_GEBRUIK,36,164 AP Ellermanstraat
491287.592486482,6661829.16427955,85462,VELOSTATION,DUBBELZIJDIG,PLEIN,Italiëlei,,,Antwerpen,2000,VE_0000167,IN_GEBRUIK,30,167 FOD Financiën 2
490128.385045245,6659994.67127951,85463,VELOSTATION,ENKELZIJDIG,VOETPAD,Schoenmarkt,,,Antwerpen,2000,VE_0000166,IN_GEBRUIK,33,166 Schoenmarkt
492113.71102326,6659920.37642734,85464,VELOSTATION,ENKELZIJDIG,PLEIN,Koningin Astridplein,,,Antwerpen,2018,VE_0000171,IN_GEBRUIK,12,171 Centraal station 3
490820.007969575,6661215.06349063,85465,VELOSTATION,DUBBELZIJDIG,VOETPAD,Paardenmarkt,43,,Antwerpen,2000,VE_0000165,IN_GEBRUIK,36,165 Den Roscam
492104.403535102,6659921.166275,85466,VELOSTATION,ENKELZIJDIG,PLEIN,Koningin Astridplein,,,Antwerpen,2018,VE_0000172,IN_GEBRUIK,12,172 Centraal station 4
494855.749214906,6660803.07492525,85467,VELOSTATION,DUBBELZIJDIG,PARKEERZONE,,,"Spoor-Oost, ad fietsenstalling",Borgerhout,2140,VE_0000306,BUITEN_GEBRUIK,36,306 Spoor-Oost
492016.052164742,6663018.2852295,85468,VELOSTATION,DUBBELZIJDIG,VOETGANGERSZONE,,nvt,,Antwerpen,2030,VE_0000175,IN_GEBRUIK,36,175 Asiadok
491671.458771966,6660283.12884671,85469,VELOSTATION,ENKELZIJDIG,VOETGANGERSZONE,Franklin Rooseveltplaats,nvt,,Antwerpen,2060,VE_0000173,IN_GEBRUIK,36,173 Franklin Roosevelt
491644.216079067,6659823.80498907,85470,VELOSTATION,ENKELZIJDIG,VOETPAD,Quellinstraat,8A,,Antwerpen,2018,VE_0000170,IN_GEBRUIK,21,170 Quellin
488708.640478318,6661162.40021437,85471,VELOSTATION,ENKELZIJDIG,VOETPAD,Thonetlaan,nvt,nvt,Antwerpen,2050,VE_0000183,IN_GEBRUIK,36,Veer LO
485329.923550814,6660197.209019,85472,VELOSTATION,DUBBELZIJDIG,GROENZONE,Katwilgweg,2,,Antwerpen,2050,VE_0000182,IN_GEBRUIK,36,Mediahuis
484323.91254654,6660193.67499433,85473,VELOSTATION,DUBBELZIJDIG,,Blancefloerlaan,500,in parkeergebouw,Antwerpen,2050,VE_0000180,IN_GEBRUIK,36,P&R LO 1
493037.002023285,6651564.05689139,85474,VELOSTATION,ENKELZIJDIG,GROENZONE,De Burletlaan,111,,Wilrijk,2610,VE_0000318,IN_GEBRUIK,33,De Burlet
494461.141626986,6667138.83876809,85475,VELOSTATION,ENKELZIJDIG,VOETGANGERSZONE,Kwadeveldenplein,nvt,,Merksem,2170,VE_0000185,IN_GEBRUIK,30,Kwadevelden
495705.551751715,6667047.86300552,85476,VELOSTATION,DUBBELZIJDIG,GROENZONE,Lange Bremstraat,,,Merksem,2170,VE_0000184,IN_GEBRUIK,36,Jan Palfijn
485839.946553827,6659940.00044798,85477,VELOSTATION,DUBBELZIJDIG,VOETGANGERSZONE,Kielzoglaan,thv 23,,Antwerpen,2050,VE_0000188,IN_GEBRUIK,30,Regatta 2
492985.194104584,6659070.34172008,85478,VELOSTATION,DUBBELZIJDIG,PARKEERZONE,Borgerhoutsestraat,67,,Borgerhout,2140,VE_0000179,IN_GEBRUIK,30,Den Bleek
488734.178228591,6650149.66112151,85479,VELOSTATION,ENKELZIJDIG,VOETGANGERSZONE,Krijgslaan,240,,Wilrijk,2610,VE_0000187,IN_GEBRUIK,30,Krijgslaan
489837.99170509,6650271.36695081,85480,VELOSTATION,ENKELZIJDIG,VOETGANGERSZONE,Krijgslaan,9,,Wilrijk,2610,VE_0000186,IN_GEBRUIK,36,Universiteitsplein
490041.181155352,6655624.47943689,85481,VELOSTATION,DUBBELZIJDIG,GROENZONE,Jan Van Rijswijcklaan,,,Antwerpen,2018,VE_0000190,IN_GEBRUIK,36,de Singel 2
